     2.10           N: GPS NAV DATA                         RINEX VERSION / TYPE
teqc  2013Mar15     gpsops              20140516 00:05:25UTCPGM / RUN BY / DATE
Linux 2.4.21-27.ELsmp|Opteron|gcc -static|Linux x86_64|=+   COMMENT
MADR                                    MARKER NAME         COMMENT
13407S012                               MARKER NUMBER       COMMENT
4849202.3940 -360328.9929 4114913.1862                      COMMENT
                                                            COMMENT
This data is provided as a public service by NASA/JPL.      COMMENT
No warranty is expressed or implied regarding suitability   COMMENT
for use.  For further information, contact:                 COMMENT
Dave Stowers, NASA/JPL m/s 238-600                          COMMENT
4800 Oak Grove Drive, Pasadena CA 91109 USA                 COMMENT
                                                            END OF HEADER
31 14  5 15 15 59 28.0 3.342428244650D-04 0.000000000000D+00 0.000000000000D+00
    1.600000000000D+01 1.875000000000D+01 4.581619414267D-09 1.999502658832D+00
    1.205131411552D-06 7.988815777935D-03 1.769512891769D-07 5.153548208237D+03
    4.031680000000D+05 1.881271600723D-07 1.720392149833D+00 2.607703208923D-08
    9.781547979250D-01 3.818750000000D+02-6.358001591487D-01-8.376063182367D-09
   -1.135761594744D-10 1.000000000000D+00 1.792000000000D+03 0.000000000000D+00
    2.000000000000D+00 0.000000000000D+00-1.303851604462D-08 1.600000000000D+01
    3.997800000000D+05 4.000000000000D+00
12 14  5 15 18  0  0.0 2.051279880106D-04 2.501110429876D-12 0.000000000000D+00
    8.900000000000D+01-1.555937500000D+02 3.771942830845D-09 2.733294461783D+00
   -8.206814527512D-06 5.128019489348D-03 7.880851626396D-06 5.153634487152D+03
    4.104000000000D+05-6.332993507385D-08 2.777306475083D+00-2.421438694000D-08
    9.877047944407D-01 2.406875000000D+02 4.285276746291D-01-7.726036106130D-09
   -4.107313943255D-10 1.000000000000D+00 1.792000000000D+03 0.000000000000D+00
    2.000000000000D+00 0.000000000000D+00-1.210719347000D-08 8.900000000000D+01
    4.032000000000D+05 4.000000000000D+00
29 14  5 15 18  0  0.0 5.327370017767D-04 2.614797267597D-12 0.000000000000D+00
    5.300000000000D+01-1.062500000000D+01 4.121957410357D-09 2.424822756835D+00
   -5.252659320831D-07 1.602967618965D-03 1.130439341068D-05 5.153709108353D+03
    4.104000000000D+05 4.470348358154D-08-2.446820031327D+00 3.911554813385D-08
    9.694047235521D-01 1.654062500000D+02-8.884266399985D-01-7.652818770620D-09
    4.732339978098D-10 1.000000000000D+00 1.792000000000D+03 0.000000000000D+00
    2.800000000000D+00 0.000000000000D+00-9.778887033463D-09 5.300000000000D+01
    4.032000000000D+05 4.000000000000D+00
31 14  5 15 17 59 28.0 3.342423588037D-04 0.000000000000D+00 0.000000000000D+00
    1.700000000000D+01 2.465625000000D+01 4.600905931914D-09 3.049776635073D+00
    1.411885023117D-06 7.989467470907D-03 3.352761268616D-07 5.153547079086D+03
    4.103680000000D+05-7.078051567078D-08 1.720330849177D+00 1.955777406693D-07
    9.781551022119D-01 3.829062500000D+02-6.358152052611D-01-8.280344909602D-09
    1.221479450951D-10 1.000000000000D+00 1.792000000000D+03 0.000000000000D+00
    2.000000000000D+00 0.000000000000D+00-1.303851604462D-08 1.700000000000D+01
    4.032000000000D+05 4.000000000000D+00
 2 14  5 15 18  0  0.0 4.954985342920D-04 2.160049916711D-12 0.000000000000D+00
    9.200000000000D+01 8.781250000000D+00 5.363794852157D-09-1.863173887711D+00
    4.656612873077D-07 1.352736365516D-02 4.405155777931D-06 5.153591968536D+03
    4.104000000000D+05 1.136213541031D-07-1.475649767536D+00-2.291053533554D-07
    9.389146419978D-01 2.830937500000D+02-2.427431092957D+00-8.272130281716D-09
    2.789401904071D-10 1.000000000000D+00 1.792000000000D+03 0.000000000000D+00
    2.000000000000D+00 0.000000000000D+00-2.048909664154D-08 9.200000000000D+01
    4.032300000000D+05 4.000000000000D+00
14 14  5 15 18  0  0.0 1.726066693664D-04-3.410605131648D-12 0.000000000000D+00
    8.100000000000D+01 1.254375000000D+02 4.262320399896D-09-4.243357691852D-01
    6.627291440964D-06 7.465968141332D-03 9.270384907722D-06 5.153663484573D+03
    4.104000000000D+05-6.146728992462D-08 7.176017763429D-01 7.450580596924D-08
    9.705557621261D-01 2.103750000000D+02-1.999560504075D+00-8.024619971918D-09
    2.992981812563D-10 1.000000000000D+00 1.792000000000D+03 0.000000000000D+00
    2.000000000000D+00 0.000000000000D+00-9.313225746155D-09 8.100000000000D+01
    4.032300000000D+05 4.000000000000D+00
25 14  5 15 18  0  0.0 2.384977415204D-05 5.684341886081D-13 0.000000000000D+00
    9.800000000000D+01-1.521250000000D+02 4.109099731926D-09 1.962855877763D+00
   -7.929280400276D-06 3.593227127567D-03 7.230788469315D-06 5.153619527817D+03
    4.104000000000D+05-6.146728992462D-08 2.735028422009D+00-7.450580596924D-09
    9.763885496337D-01 2.498437500000D+02 6.730037517076D-01-7.949974005471D-09
   -3.753727786401D-10 1.000000000000D+00 1.792000000000D+03 0.000000000000D+00
    2.000000000000D+00 0.000000000000D+00 5.122274160385D-09 9.800000000000D+01
    4.032300000000D+05 4.000000000000D+00
21 14  5 15 18  0  0.0-3.612660802901D-04-2.273736754432D-12 0.000000000000D+00
    7.300000000000D+01 1.040625000000D+01 5.476299538429D-09 2.217883247100D+00
    1.229345798492D-07 2.148268907331D-02 4.533678293228D-06 5.153747665405D+03
    4.104000000000D+05 8.195638656616D-08-1.458231211583D+00-4.302710294724D-07
    9.318494191544D-01 2.746875000000D+02-2.026728000236D+00-8.279987751868D-09
    1.642925577302D-10 1.000000000000D+00 1.792000000000D+03 0.000000000000D+00
    2.000000000000D+00 0.000000000000D+00-1.117587089539D-08 7.300000000000D+01
    4.036200000000D+05 4.000000000000D+00
24 14  5 15 17 59 44.0-2.841558307409D-05-5.684341886081D-13 0.000000000000D+00
    9.000000000000D+00 3.737500000000D+01 5.122356223840D-09-2.296038210362D+00
    1.832842826843D-06 2.083480707370D-03-8.568167686462D-08 5.153732208252D+03
    4.103840000000D+05-1.676380634308D-08 1.679740441806D+00-1.117587089539D-07
    9.565903014143D-01 3.792812500000D+02 3.479451114591D-01-8.745007121791D-09
    1.535778257043D-10 1.000000000000D+00 1.792000000000D+03 0.000000000000D+00
    2.000000000000D+00 0.000000000000D+00 2.793967723846D-09 9.000000000000D+00
    4.044900000000D+05 4.000000000000D+00
12 14  5 15 17 59 44.0 2.051279880106D-04 2.501110429876D-12 0.000000000000D+00
    1.000000000000D+01-1.555937500000D+02 3.771942830845D-09 2.730960114125D+00
   -8.206814527512D-06 5.128020537086D-03 7.880851626396D-06 5.153634492874D+03
    4.103840000000D+05-6.332993507385D-08 2.777306609671D+00-2.421438694000D-08
    9.877047973665D-01 2.406875000000D+02 4.285282159088D-01-7.726036106130D-09
   -4.110885520597D-10 1.000000000000D+00 1.792000000000D+03 0.000000000000D+00
    2.000000000000D+00 0.000000000000D+00-1.210719347000D-08 1.000000000000D+01
    4.084500000000D+05 4.000000000000D+00
16 14  5 15 18  0  0.0-2.182996831834D-04 1.932676241267D-12 0.000000000000D+00
    8.900000000000D+01-1.271250000000D+02 3.839445642608D-09 5.920688213115D-01
   -6.560236215591D-06 7.743974914774D-03 7.627531886101D-06 5.153593894958D+03
    4.104000000000D+05 4.842877388000D-08 2.795846685437D+00 5.774199962616D-08
    9.883224296762D-01 2.425937500000D+02 2.030803040470D-01-7.855684363643D-09
   -4.132314984649D-10 1.000000000000D+00 1.792000000000D+03 0.000000000000D+00
    2.000000000000D+00 0.000000000000D+00-1.024454832077D-08 8.900000000000D+01
    4.088100000000D+05 4.000000000000D+00
16 14  5 15 20  0  0.0-2.182861790061D-04 1.932676241267D-12 0.000000000000D+00
    9.000000000000D+01-1.359375000000D+02 3.985523155894D-09 1.642454535235D+00
   -6.783753633499D-06 7.743061520159D-03 7.608905434608D-06 5.153591047287D+03
    4.176000000000D+05 1.490116119385D-08 2.795790052952D+00 1.192092895508D-07
    9.883194789705D-01 2.502500000000D+02 2.029212512046D-01-7.845326789351D-09
   -3.853731951976D-10 1.000000000000D+00 1.792000000000D+03 0.000000000000D+00
    2.000000000000D+00 0.000000000000D+00-1.024454832077D-08 9.000000000000D+01
    4.104000000000D+05 4.000000000000D+00
29 14  5 15 20  0  0.0 5.327560938895D-04 2.614797267597D-12 0.000000000000D+00
    5.400000000000D+01-1.753125000000D+01 4.082312901861D-09-2.808690254754D+00
   -9.816139936447D-07 1.601305441000D-03 1.197122037411D-05 5.153712459564D+03
    4.176000000000D+05-5.587935447693D-09-2.446875259410D+00 5.587935447693D-08
    9.694083398856D-01 1.528437500000D+02-8.879441827822D-01-7.632460779770D-09
    5.103784021662D-10 1.000000000000D+00 1.792000000000D+03 0.000000000000D+00
    2.800000000000D+00 0.000000000000D+00-9.778887033463D-09 5.400000000000D+01
    4.104000000000D+05 4.000000000000D+00
31 14  5 15 20  0  0.0 3.342423588037D-04 0.000000000000D+00 0.000000000000D+00
    1.800000000000D+01 2.865625000000D+01 4.626978446510D-09-2.178468636729D+00
    1.635402441025D-06 7.989809149876D-03 5.196779966354D-07 5.153546577454D+03
    4.176000000000D+05-2.477318048477D-07 1.720270742261D+00 1.173466444016D-07
    9.781556010670D-01 3.825625000000D+02-6.358280145718D-01-8.382849179316D-09
    1.439345668810D-10 1.000000000000D+00 1.792000000000D+03 0.000000000000D+00
    2.000000000000D+00 0.000000000000D+00-1.303851604462D-08 1.800000000000D+01
    4.104000000000D+05 4.000000000000D+00
21 14  5 15 20  0  0.0-3.612819127738D-04-2.273736754432D-12 0.000000000000D+00
    7.400000000000D+01 1.096875000000D+01 5.487371428189D-09-3.015165165115D+00
    4.470348358154D-07 2.148262434639D-02 4.380941390991D-06 5.153747861862D+03
    4.176000000000D+05 2.086162567139D-07-1.458289981391D+00-2.346932888031D-07
    9.318508162411D-01 2.760937500000D+02-2.026722694232D+00-8.180697901761D-09
    1.589351917173D-10 1.000000000000D+00 1.792000000000D+03 0.000000000000D+00
    2.000000000000D+00 0.000000000000D+00-1.117587089539D-08 7.400000000000D+01
    4.104300000000D+05 4.000000000000D+00
